COMMENT,ORIGINATOR,NORAD_CAT_ID,OBJECT_NAME,OBJECT_TYPE,CLASSIFICATION_TYPE,INTLDES,EPOCH,EPOCH_MICROSECONDS,MEAN_MOTION,ECCENTRICITY,INCLINATION,RA_OF_ASC_NODE,ARG_OF_PERICENTER,MEAN_ANOMALY,EPHEMERIS_TYPE,ELEMENT_SET_NO,REV_AT_EPOCH,BSTAR,MEAN_MOTION_DOT,MEAN_MOTION_DDOT,FILE,TLE_LINE0,TLE_LINE1,TLE_LINE2,OBJECT_ID,OBJECT_NUMBER,SEMIMAJOR_AXIS,PERIOD,APOGEE,PERIGEE,DECAYED
GENERATED VIA SPACETRACK.ORG API,18 SPCS,58292,UMBRA-08,PAYLOAD,U,23174AN,2025-09-24 11:38:47,513760,15.44583264,0.00025793856,97.397812,343.65965,217.89488,142.21184,0,999,10442,0.0026623811,0.0012552095,0,4824422,0 UMBRA-08,1 58292U 23174AN  25267.48527215  .00125521  00000-0  26624-2 0  9997,2 58292  97.3978 343.6597 0002579 217.8949 142.2118 15.44583264104423,2023-174AN,58292,6810.740,93.229,434.362,430.848,1
GENERATED VIA SPACETRACK.ORG API,18 SPCS,58292,UMBRA-08,PAYLOAD,U,23174AN,2025-09-25 04:44:55,294080,15.447682204,0.0002665973,97.397496,344.38463,218.87094,141.23477,0,999,10453,0.0027059659,0.0012842698,0,4824485,0 UMBRA-08,1 58292U 23174AN  25268.19786220  .00128427  00000-0  27060-2 0  9992,2 58292  97.3975 344.3846 0002666 218.8709 141.2348 15.44768220104530,2023-174AN,58292,6810.196,93.218,433.877,430.246,1
GENERATED VIA SPACETRACK.ORG API,18 SPCS,58292,UMBRA-08,PAYLOAD,U,23174AN,2025-09-25 18:44:23,620416,15.449097538,0.00026962533,97.397287,344.97858,223.92266,136.18079,0,999,10462,0.0026713183,0.0012737373,0,4824533,0 UMBRA-08,1 58292U 23174AN  25268.78082894  .00127374  00000-0  26713-2 0  9997,2 58292  97.3973 344.9786 0002696 223.9227 136.1808 15.44909754104625,2023-174AN,58292,6809.780,93.209,433.481,429.809,1
GENERATED VIA SPACETRACK.ORG API,18 SPCS,58292,UMBRA-08,PAYLOAD,U,23174AN,2025-09-26 02:30:43,909632,15.449967848,0.00027298619,97.397268,345.30809,222.54983,137.5539,0,999,10467,0.0028141943,0.0013471522,0,4824534,0 UMBRA-08,1 58292U 23174AN  25269.10467488  .00134715  00000-0  28142-2 0  9995,2 58292  97.3973 345.3081 0002730 222.5498 137.5539 15.44996785104673,2023-174AN,58292,6809.525,93.204,433.248,429.531,1
GENERATED VIA SPACETRACK.ORG API,18 SPCS,58292,UMBRA-08,PAYLOAD,U,23174AN,2025-09-26 22:43:05,905632,15.451996927,0.00026963482,97.396914,346.16543,223.69401,136.40955,0,999,10480,0.002591736,0.00124756,0,4824809,0 UMBRA-08,1 58292U 23174AN  25269.94659613  .00124756  00000-0  25917-2 0  9991,2 58292  97.3969 346.1654 0002696 223.6940 136.4096 15.45199693104803,2023-174AN,58292,6808.928,93.192,432.629,428.957,1
GENERATED VIA SPACETRACK.ORG API,18 SPCS,58292,UMBRA-08,PAYLOAD,U,23174AN,2025-09-27 04:56:06,77760,15.452673505,0.00027198109,97.396915,346.4292,222.61649,137.48732,0,999,10484,0.0025311124,0.0012207415,0,4824833,0 UMBRA-08,1 58292U 23174AN  25270.20562590  .00122074  00000-0  25311-2 0  9998,2 58292  97.3969 346.4292 0002720 222.6165 137.4873 15.45267351104845,2023-174AN,58292,6808.730,93.188,432.446,428.743,1
GENERATED VIA SPACETRACK.ORG API,18 SPCS,58292,UMBRA-08,PAYLOAD,U,23174AN,2025-09-27 15:48:49,201056,15.453716664,0.00026686592,97.396796,346.89158,224.15503,135.94858,0,999,10491,0.0024159903,0.0011685282,0,4824924,0 UMBRA-08,1 58292U 23174AN  25270.65890279  .00116853  00000-0  24160-2 0  9994,2 58292  97.3968 346.8916 0002669 224.1550 135.9486 15.45371666104914,2023-174AN,58292,6808.423,93.181,432.105,428.471,1
GENERATED VIA SPACETRACK.ORG API,18 SPCS,58292,UMBRA-08,PAYLOAD,U,23174AN,2025-09-28 04:14:43,473984,15.455189395,0.00026493575,97.396828,347.41872,224.92974,135.17374,0,999,10499,0.0030101891,0.0014691222,0,4824963,0 UMBRA-08,1 58292U 23174AN  25271.17689206  .00146912  00000-0  30102-2 0  9990,2 58292  97.3968 347.4187 0002649 224.9297 135.1737 15.45518940104992,2023-174AN,58292,6807.991,93.173,431.659,428.052,1
GENERATED VIA SPACETRACK.ORG API,18 SPCS,58292,UMBRA-08,PAYLOAD,U,23174AN,2025-09-28 18:13:47,108064,15.45677652,0.00025848067,97.396846,348.01279,225.67725,134.42648,0,999,10508,0.0029280697,0.0014361476,0,4825005,0 UMBRA-08,1 58292U 23174AN  25271.75957301  .00143615  00000-0  29281-2 0  9991,2 58292  97.3968 348.0128 0002585 225.6773 134.4265 15.45677652105085,2023-174AN,58292,6807.525,93.163,431.149,427.630,1
GENERATED VIA SPACETRACK.ORG API,18 SPCS,58292,UMBRA-08,PAYLOAD,U,23174AN,2025-09-29 05:06:19,328544,15.458199789,0.00025022112,97.396769,348.4747,225.12469,134.97992,0,999,10515,0.0029621064,0.0014603653,0,4825035,0 UMBRA-08,1 58292U 23174AN  25272.21272371  .00146037  00000-0  29621-2 0  9999,2 58292  97.3968 348.4747 0002502 225.1247 134.9799 15.45819979105151,2023-174AN,58292,6807.107,93.154,430.675,427.269,1
GENERATED VIA SPACETRACK.ORG API,18 SPCS,58292,UMBRA-08,PAYLOAD,U,23174AN,2025-09-29 19:05:12,401952,15.46017684,0.0002415,97.3968,349.0694,220.0627,140.0444,0,999,10524,0.0034306,0.00170835,0,4825417,0 UMBRA-08,1 58292U 23174AN  25272.79528243  .00170835  00000-0  34306-2 0  9993,2 58292  97.3968 349.0694 0002415 220.0627 140.0444 15.46017684105247,2023-174AN,58292,6806.526,93.143,430.035,426.748,1
GENERATED VIA SPACETRACK.ORG API,18 SPCS,58292,UMBRA-08,PAYLOAD,U,23174AN,2025-09-29 19:05:12,402816,15.460176839,0.00024150013,97.396772,349.06938,220.0627,140.04443,0,999,10524,0.0034305758,0.0017083547,0,4825701,0 UMBRA-08,1 58292U 23174AN  25272.79528244  .00170835  00000-0  34306-2 0  9994,2 58292  97.3968 349.0694 0002415 220.0627 140.0444 15.46017684105247,2023-174AN,58292,6806.526,93.143,430.035,426.748,1
GENERATED VIA SPACETRACK.ORG API,18 SPCS,58292,UMBRA-08,PAYLOAD,U,23174AN,2025-09-30 18:23:03,847200,15.46419331,0.0002552,97.3967,350.0585,220.1645,139.9417,0,999,10539,0.0036943,0.00186904,0,4827462,0 UMBRA-08,1 58292U 23174AN  25273.76601675  .00186904  00000-0  36943-2 0  9995,2 58292  97.3967 350.0585 0002552 220.1645 139.9417 15.46419331105398,2023-174AN,58292,6805.348,93.118,428.950,425.476,1
GENERATED VIA SPACETRACK.ORG API,18 SPCS,58292,UMBRA-08,PAYLOAD,U,23174AN,2025-10-01 03:42:06,500160,15.46568871,0.0002561,97.3966,350.4543,217.3473,142.7598,0,999,10545,0.0031724,0.00160774,0,4828254,0 UMBRA-08,1 58292U 23174AN  25274.15424190  .00160774  00000-0  31724-2 0  9993,2 58292  97.3966 350.4543 0002561 217.3473 142.7598 15.46568871105455,2023-174AN,58292,6804.909,93.109,428.517,425.031,1
GENERATED VIA SPACETRACK.ORG API,18 SPCS,58292,UMBRA-08,PAYLOAD,U,23174AN,2025-10-01 05:15:16,622496,15.466008884,0.00025398144,97.39661,350.52049,216.63721,143.4704,0,999,10546,0.0033679234,0.001711003,0,4828516,0 UMBRA-08,1 58292U 23174AN  25274.21894239  .00171100  00000-0  33679-2 0  9991,2 58292  97.3966 350.5205 0002540 216.6372 143.4704 15.46600888105461,2023-174AN,58292,6804.815,93.107,428.409,424.952,1
GENERATED VIA SPACETRACK.ORG API,18 SPCS,58292,UMBRA-08,PAYLOAD,U,23174AN,2025-10-01 05:15:16,621632,15.46600888,0.000254,97.3966,350.5205,216.6372,143.4704,0,999,10546,0.0033679,0.001711,0,4828952,0 UMBRA-08,1 58292U 23174AN  25274.21894238  .00171100  00000-0  33679-2 0  9990,2 58292  97.3966 350.5205 0002540 216.6372 143.4704 15.46600888105461,2023-174AN,58292,6804.815,93.107,428.409,424.952,1
GENERATED VIA SPACETRACK.ORG API,18 SPCS,58292,UMBRA-08,PAYLOAD,U,23174AN,2025-10-01 16:07:25,336128,15.46753072,0.0002549,97.3964,350.9827,214.2911,145.8174,0,999,10553,0.0032282,0.00164721,0,4829612,0 UMBRA-08,1 58292U 23174AN  25274.67182102  .00164721  00000-0  32282-2 0  9990,2 58292  97.3964 350.9827 0002549 214.2911 145.8174 15.46753072105534,2023-174AN,58292,6804.369,93.098,427.968,424.499,1
GENERATED VIA SPACETRACK.ORG API,18 SPCS,58292,UMBRA-08,PAYLOAD,U,23174AN,2025-10-01 22:20:02,741856,15.468513213,0.0002459477,97.396274,351.24797,217.80003,142.30769,0,999,10557,0.0036238458,0.0018605387,0,4829844,0 UMBRA-08,1 58292U 23174AN  25274.93058729  .00186054  00000-0  36238-2 0  9994,2 58292  97.3963 351.2480 0002459 217.8000 142.3077 15.46851321105574,2023-174AN,58292,6804.081,93.092,427.619,424.272,1
GENERATED VIA SPACETRACK.ORG API,18 SPCS,58292,UMBRA-08,PAYLOAD,U,23174AN,2025-10-02 04:32:38,760864,15.46947718,0.0002531,97.3964,351.5118,222.5574,137.548,0,999,10561,0.0035123,0.00180799,0,4830381,0 UMBRA-08,1 58292U 23174AN  25275.18933751  .00180799  00000-0  35123-2 0  9991,2 58292  97.3964 351.5118 0002531 222.5574 137.5480 15.46947718105611,2023-174AN,58292,6803.798,93.087,427.385,423.941,1
GENERATED VIA SPACETRACK.ORG API,18 SPCS,58292,UMBRA-08,PAYLOAD,U,23174AN,2025-10-02 13:51:30,352896,15.470814695,0.0002586389,97.396727,351.90819,223.9248,136.17965,0,999,10567,0.0034328847,0.0017744907,0,4830696,0 UMBRA-08,1 58292U 23174AN  25275.57743464  .00177449  00000-0  34329-2 0  9999,2 58292  97.3967 351.9082 0002586 223.9248 136.1797 15.47081470105678,2023-174AN,58292,6803.406,93.078,427.031,423.511,1
GENERATED VIA SPACETRACK.ORG API,18 SPCS,58292,UMBRA-08,PAYLOAD,U,23174AN,2025-10-02 16:57:46,956672,15.47124996,0.0002578,97.3967,352.0403,223.9738,136.1307,0,999,10569,0.0033613,0.00173929,0,4831225,0 UMBRA-08,1 58292U 23174AN  25275.70679348  .00173929  00000-0  33613-2 0  9997,2 58292  97.3967 352.0403 0002578 223.9738 136.1307 15.47124996105692,2023-174AN,58292,6803.278,93.076,426.897,423.389,1
GENERATED VIA SPACETRACK.ORG API,18 SPCS,58292,UMBRA-08,PAYLOAD,U,23174AN,2025-10-02 21:37:11,218656,15.471831082,0.00025587186,97.396799,352.23842,224.01984,136.08479,0,999,10572,0.0030183015,0.0015612651,0,4831546,0 UMBRA-08,1 58292U 23174AN  25275.90082429  .00156127  00000-0  30183-2 0  9997,2 58292  97.3968 352.2384 0002559 224.0198 136.0848 15.47183108105727,2023-174AN,58292,6803.108,93.072,426.714,423.232,1
GENERATED VIA SPACETRACK.ORG API,18 SPCS,58292,UMBRA-08,PAYLOAD,U,23174AN,2025-10-03 06:55:57,838368,15.473236354,0.00024962365,97.396823,352.63494,222.55228,137.55339,0,999,10578,0.0038446759,0.002010159,0,4831615,0 UMBRA-08,1 58292U 23174AN  25276.28886387  .00201016  00000-0  38447-2 0  9993,2 58292  97.3968 352.6349 0002496 222.5523 137.5534 15.47323635105782,2023-174AN,58292,6802.696,93.064,426.259,422.863,1
